PharmacyID,LicenseNo,Name,PhoneNumber1,PhoneNumber2,EmailAddress,Website,Description,State,City,Street,ApartmentNo,Pincode,Landmark,AC_No,IFSC_Code,UPI_ID
1,CFXO6269,O'Keefe-Bahringer,+1-402-715-6126,+1-202-361-8213,lknock0@seattletimes.com,lknock0.seattletimes.com,optimize transparent infomediaries,Nebraska,Omaha,976 Tennyson Pass,16,68124,near Lake,327272,AU5862,327272@AU5862
2,UDZJ1346,"Goodwin, Stanton and Ryan",+1-816-599-0639,+1-602-923-9144,kbusain1@springer.com,kbusain1.springer.com,disintermediate rich web-readiness,Missouri,Kansas City,716 Melvin Plaza,83,64130,near Hospital,992665,NWT6339,992665@NWT6339
3,AZSM4934,"Parisian, Jacobson and Durgan",+1-412-793-4655,+1-623-644-7801,gmehew2@nifty.com,gmehew2.nifty.com,integrate compelling niches,Pennsylvania,Pittsburgh,025 Briar Crest Terrace,94,15279,near Insurance Company,265768,PV3914,265768@PV3914
4,FFWI1082,Franecki-Cremin,+1-315-776-2758,+1-281-397-9581,tkochel3@blinklist.com,tkochel3.blinklist.com,expedite compelling applications,New York,Syracuse,5068 Bayside Road,33,13217,near Hospital,493903,JXL6612,493903@JXL6612
5,LXJR5140,Ratke and Sons,+1-360-117-1317,+1-254-434-9764,dtonna4@auda.org.au,dtonna4.auda.org.au,transition integrated infrastructures,Washington,Vancouver,766 Sachtjen Court,28,98687,opposite Hospital,816313,JLLX9179,816313@JLLX9179
6,NXBB0747,Davis-Schuppe,+1-941-999-1351,+1-330-155-9365,abraunroth5@marriott.com,abraunroth5.marriott.com,transition B2C models,Florida,Bradenton,428 Becker Road,65,34205,near Lake,303978,JF5159,303978@JF5159
7,BNJA5393,"Stanton, Dooley and Shanahan",+1-760-806-2100,+1-717-536-5702,ehallahan6@bing.com,ehallahan6.bing.com,envisioneer magnetic functionalities,California,Carlsbad,1 Anderson Street,63,92013,near Plaza,872299,YM6876,872299@YM6876
8,EVTO8748,"Blanda, Bechtelar and Bins",+1-251-546-8091,+1-202-486-6266,lcoathup7@ifeng.com,lcoathup7.ifeng.com,scale vertical bandwidth,Alabama,Mobile,23104 Graceland Drive,9,36689,near Lake,825349,TK9168,825349@TK9168
9,QUHL4336,Price-Hauck,+1-907-743-7347,+1-360-698-2515,cfilipson8@mysql.com,cfilipson8.mysql.com,productize integrated synergies,Alaska,Anchorage,49010 Leroy Center,80,99517,near Plaza,911009,WQ9269,911009@WQ9269
10,YIKP6206,Kirlin Inc,+1-254-528-8226,+1-314-391-7101,abaythorp9@bloglovin.com,abaythorp9.bloglovin.com,grow holistic e-commerce,Texas,Waco,42 Continental Center,22,76705,near Lake,277993,HLCC4473,277993@HLCC4473
11,IWFB0263,Koss Group,+1-520-474-4237,+1-817-979-6740,fhalvosena@nature.com,fhalvosena.nature.com,iterate robust systems,Arizona,Tucson,944 Buhler Plaza,9,85725,near Lake,790456,PMY8292,790456@PMY8292
12,SPXQ1249,Leffler-Crona,+1-336-476-0420,+1-973-568-9806,smapamb@nytimes.com,smapamb.nytimes.com,optimize vertical e-commerce,North Carolina,Winston Salem,000 Jackson Pass,82,27105,near Insurance Company,708456,CP8444,708456@CP8444
13,AQQD5513,Bernhard-Breitenberg,+1-585-527-2522,+1-512-461-3461,gmacveanc@jigsy.com,gmacveanc.jigsy.com,architect synergistic platforms,New York,Rochester,88992 Westerfield Avenue,10,14624,near Hospital,888780,STVW2893,888780@STVW2893
14,GEWD7484,"McClure, Lueilwitz and Watsica",+1-518-602-5998,+1-904-590-7962,ariddichd@mozilla.org,ariddichd.mozilla.org,architect killer e-tailers,New York,Albany,9513 Lakewood Gardens Alley,93,12205,near Insurance Company,123401,MYJH0919,123401@MYJH0919
15,QYTF4197,Mitchell LLC,+1-402-613-7965,+1-915-262-0220,adavete@devhub.com,adavete.devhub.com,aggregate user-centric e-tailers,Nebraska,Lincoln,311 Del Sol Court,8,68510,near Insurance Company,638521,QB6494,638521@QB6494
16,NRWT0879,Kling LLC,+1-806-482-3905,+1-520-238-3482,zamdohrf@indiatimes.com,zamdohrf.indiatimes.com,engage impactful partnerships,Texas,Amarillo,36029 Luster Drive,78,79188,near Insurance Company,476146,ZXR5639,476146@ZXR5639
17,BCUX6840,"Carroll, Collier and Hilpert",+1-352-229-9939,,mnavarrog@soundcloud.com,mnavarrog.soundcloud.com,expedite frictionless interfaces,Florida,Brooksville,64079 Esker Place,56,34605,near Plaza,603624,OCE5540,603624@OCE5540
18,KJHS6508,McCullough LLC,+1-714-499-8281,+1-713-112-7334,tmcpheath@yolasite.com,tmcpheath.yolasite.com,transition enterprise relationships,California,Irvine,0 Express Street,67,92612,near Insurance Company,289941,ZTNB1778,289941@ZTNB1778
19,JEDV8775,Rohan Inc,+1-202-223-3355,+1-915-116-9564,jgonzalezi@blog.com,jgonzalezi.blog.com,reinvent open-source e-tailers,District of Columbia,Washington,56 Del Sol Hill,12,20226,near Hospital,545292,IZ4527,545292@IZ4527
20,CWMO4621,Will Inc,+1-515-586-1175,+1-312-816-8030,dquinneyj@so-net.ne.jp,dquinneyj.so-net.ne.jp,embrace visionary architectures,Iowa,Des Moines,115 Porter Hill,59,50936,near Lake,387381,VD6587,387381@VD6587
21,FKYV8362,"Stehr, Beer and Heller",+1-414-169-6352,+1-916-752-8078,kkelleherk@unblog.fr,kkelleherk.unblog.fr,cultivate distributed channels,Wisconsin,Milwaukee,38 Mandrake Junction,24,53205,near Plaza,221862,DH6667,221862@DH6667
22,SHNF8159,Turner Inc,+1-414-557-0505,+1-503-858-6043,wghiottol@theatlantic.com,wghiottol.theatlantic.com,iterate dot-com platforms,Wisconsin,Milwaukee,89739 Mifflin Trail,34,53277,near Lake,976957,WV0996,976957@WV0996
23,WDPT2443,Rath LLC,+1-812-719-6168,,lgoodinm@cnn.com,lgoodinm.cnn.com,architect interactive markets,Indiana,Evansville,123 Trailsway Parkway,65,47705,near Hospital,597621,XRD4569,597621@XRD4569
24,OHFG2517,"Doyle, Boyer and Abernathy",+1-518-969-9236,+1-954-512-7990,kcapitanon@ask.com,kcapitanon.ask.com,syndicate intuitive vortals,New York,Albany,9133 Barnett Parkway,82,12227,near Hospital,493204,WU4141,493204@WU4141
25,OKET4395,Schulist-Weissnat,+1-559-634-6728,+1-203-868-3518,ralweno@jalbum.net,ralweno.jalbum.net,empower integrated technologies,California,Fresno,16672 Golf Street,87,93773,near Lake,660202,QU6063,660202@QU6063
26,LTHX5106,"Gulgowski, McCullough and Cronin",+1-610-214-8424,+1-915-475-0450,jdalgarnop@google.de,jdalgarnop.google.de,transition front-end experiences,Pennsylvania,Bethlehem,06553 Portage Terrace,42,18018,near Insurance Company,624423,KSK1119,624423@KSK1119
27,YNEC9096,Wisoky-Wunsch,+1-406-386-5076,+1-571-333-7300,mraistonq@ihg.com,mraistonq.ihg.com,enhance end-to-end e-markets,Montana,Billings,274 Jenifer Court,20,59112,opposite Hospital,978218,GDS8936,978218@GDS8936
28,ZTVQ4755,Wyman and Sons,+1-502-969-8773,+1-859-302-3523,iludlemr@google.com.br,iludlemr.google.com.br,engineer innovative metrics,Kentucky,Louisville,12 Corry Plaza,45,40298,near Hospital,163963,EUQ0339,163963@EUQ0339
29,YZPJ5732,Greenfelder-Wintheiser,+1-951-232-9337,+1-863-408-2065,baytons@dropbox.com,baytons.dropbox.com,envisioneer bleeding-edge web services,California,Corona,4003 Westerfield Parkway,39,92883,near Hospital,128233,CQMK9351,128233@CQMK9351
30,WOYT3072,Metz-Ortiz,+1-615-986-6131,+1-805-677-0288,gvlacht@wiley.com,gvlacht.wiley.com,scale real-time partnerships,Tennessee,Nashville,605 Messerschmidt Avenue,81,37240,near Insurance Company,237194,VKS3133,237194@VKS3133
31,HUJQ0583,"Mayert, Beahan and Gibson",+1-507-430-3651,,vgraylandu@ustream.tv,vgraylandu.ustream.tv,incentivize web-enabled models,Minnesota,Rochester,081 Cherokee Pass,32,55905,opposite Hospital,217780,HA0064,217780@HA0064
32,VBGW3532,Tromp-Yost,+1-559-409-4616,+1-734-416-7649,dgehringerv@addtoany.com,dgehringerv.addtoany.com,monetize impactful portals,California,Fresno,9 Sommers Point,80,93794,opposite Hospital,868885,ERCQ8344,868885@ERCQ8344
33,FLBZ2224,Corkery-Mayert,+1-480-348-5034,+1-432-498-7160,sandriw@istockphoto.com,sandriw.istockphoto.com,scale extensible content,Arizona,Phoenix,5697 Manley Drive,38,85015,near Insurance Company,334797,SM5635,334797@SM5635
34,DTZE7099,"Marvin, Smitham and Romaguera",+1-786-554-9523,+1-281-326-9533,lesselinx@zimbio.com,lesselinx.zimbio.com,exploit turn-key methodologies,Florida,Miami,78 Cordelia Park,26,33142,near Insurance Company,953255,VAYA5786,953255@VAYA5786
35,EmailAddress,"Conn, Osinski and Mayer",+1-312-831-4580,+1-915-933-1246,tcavoliniy@cdbaby.com,tcavoliniy.cdbaby.com,utilize enterprise bandwidth,Illinois,Chicago,0 Evergreen Street,83,60681,near Plaza,179868,PIV6014,179868@PIV6014
36,ANQI5389,"Raynor, Mann and Nicolas",+1-212-204-3036,+1-256-486-9065,ioaksz@seattletimes.com,ioaksz.seattletimes.com,aggregate front-end communities,New York,New York City,43 Warner Alley,95,10131,near Lake,774635,JB1356,774635@JB1356
37,BNFP0144,"Osinski, Sanford and Labadie",+1-912-647-0210,+1-267-481-2581,tmorter10@taobao.com,tmorter10.taobao.com,e-enable clicks-and-mortar networks,Georgia,Macon,17 Ludington Park,57,31217,near Hospital,905359,NPLZ1309,905359@NPLZ1309
38,DJLE2676,Keeling-Gusikowski,+1-215-781-5383,+1-208-880-8151,hcloutt11@symantec.com,hcloutt11.symantec.com,seize e-business vortals,Pennsylvania,Philadelphia,88 Talmadge Junction,89,19131,near Hospital,806263,PWKJ6817,806263@PWKJ6817
39,FOSS6455,Schultz LLC,+1-806-283-9215,+1-313-320-2523,abrill12@uiuc.edu,abrill12.uiuc.edu,optimize user-centric infomediaries,Texas,Amarillo,116 Killdeer Junction,84,79159,near Plaza,892449,MK1266,892449@MK1266
40,HPEJ3004,Mills-Wolff,+1-267-771-9963,+1-347-565-9278,tgoddman13@tuttocitta.it,tgoddman13.tuttocitta.it,synthesize real-time networks,Pennsylvania,Bethlehem,8 Amoth Junction,55,18018,near Hospital,937339,LP3965,937339@LP3965
41,RMAI9350,Christiansen Group,+1-518-980-5776,+1-518-606-1880,fiacobini14@disqus.com,fiacobini14.disqus.com,morph customized web-readiness,New York,Albany,0 Bunting Plaza,43,12242,near Hospital,625068,NE8907,625068@NE8907
42,JCFD4403,Rath-Jast,+1-860-229-0433,+1-815-432-9623,btunnick15@chicagotribune.com,btunnick15.chicagotribune.com,reinvent best-of-breed solutions,Connecticut,West Hartford,203 Mccormick Road,5,6127,opposite Hospital,757151,FC8953,757151@FC8953
43,TSEI3817,Walsh LLC,+1-304-208-3145,+1-718-159-0517,lfreezer16@amazonaws.com,lfreezer16.amazonaws.com,unleash clicks-and-mortar e-markets,West Virginia,Charleston,332 Prairieview Parkway,72,25331,near Plaza,104052,VCSS1856,104052@VCSS1856
44,HSSR8001,Klocko-Medhurst,+1-337-744-0778,+1-520-616-7589,smacphee17@networksolutions.com,smacphee17.networksolutions.com,integrate mission-critical schemas,Louisiana,Lafayette,6 Leroy Point,23,70505,near Plaza,361475,LR1536,361475@LR1536
45,UTQB3173,"Hackett, Altenwerth and Schaden",+1-585-403-1335,+1-571-692-2134,ccyples18@vistaprint.com,ccyples18.vistaprint.com,benchmark killer infrastructures,New York,Rochester,80 Elka Street,35,14604,near Lake,744297,YMU0619,744297@YMU0619
46,IRFG7717,"Erdman, Conn and Abshire",+1-216-997-8157,,jkreutzer19@virginia.edu,jkreutzer19.virginia.edu,engage visionary e-services,Ohio,Cleveland,622 Debs Center,50,44111,near Hospital,112681,MYXG3473,112681@MYXG3473
47,EODC8147,Toy-Kling,+1-701-705-4038,+1-919-590-6955,ncornish1a@nyu.edu,ncornish1a.nyu.edu,syndicate real-time channels,North Dakota,Grand Forks,5326 Moland Alley,27,58207,near Plaza,172263,LJB4082,172263@LJB4082
48,PEYU4636,"Tromp, Smitham and Dietrich",+1-901-907-0486,+1-314-591-0923,ballden1b@ucoz.com,ballden1b.ucoz.com,matrix integrated networks,Tennessee,Memphis,067 Stoughton Center,18,38168,near Hospital,269456,WA8482,269456@WA8482
49,DFOG8952,"Denesik, Veum and Cremin",+1-406-578-4486,+1-720-830-9844,abaughn1c@time.com,abaughn1c.time.com,unleash synergistic infomediaries,Montana,Missoula,4200 Chive Street,79,59806,near Insurance Company,454686,GZ9482,454686@GZ9482
50,XNHW2941,Wolf-Quitzon,+1-843-330-4406,+1-212-628-3424,vminshall1d@dailymail.co.uk,vminshall1d.dailymail.co.uk,grow collaborative content,South Carolina,Charleston,681 Westerfield Park,21,29424,near Lake,824996,AUT6269,824996@AUT6269
51,PPMG3830,Heller-Boyle,+1-937-504-1691,+1-253-698-5803,sronaghan1e@statcounter.com,sronaghan1e.statcounter.com,evolve viral web services,Ohio,Dayton,3 Mandrake Street,78,45440,near Insurance Company,961616,QMUK1043,961616@QMUK1043
52,PFYT5645,Kirlin LLC,+1-314-543-4611,+1-702-119-2124,imuldowney1f@geocities.jp,imuldowney1f.geocities.jp,facilitate proactive eyeballs,Missouri,Saint Louis,24680 Lillian Alley,87,63169,near Lake,369933,NQNO0797,369933@NQNO0797
53,SOFD2090,"Abshire, Fay and Osinski",+1-212-435-1504,+1-916-244-9201,iprandin1g@sun.com,iprandin1g.sun.com,visualize efficient web services,New York,New York City,2730 Linden Parkway,35,10115,near Plaza,322089,XN4517,322089@XN4517
54,FVHP0616,"Donnelly, Armstrong and Beatty",+1-860-592-0011,+1-619-726-2267,aleither1h@gravatar.com,aleither1h.gravatar.com,implement 24/365 niches,Connecticut,Hartford,92 Hayes Road,27,6160,opposite Hospital,938430,DZ6432,938430@DZ6432
55,HVRC6316,Hermann LLC,+1-801-608-5181,+1-432-517-9996,bgalletly1i@biblegateway.com,bgalletly1i.biblegateway.com,strategize real-time architectures,Utah,Salt Lake City,3 Calypso Parkway,45,84135,near Insurance Company,116416,YUM4838,116416@YUM4838
56,WJXD2302,"Schneider, Keebler and Goodwin",+1-712-238-7026,+1-336-666-6192,isnaden1j@123-reg.co.uk,isnaden1j.123-reg.co.uk,grow robust content,Nebraska,Omaha,53 Fieldstone Lane,100,68134,opposite Hospital,657442,EJPD5753,657442@EJPD5753
57,RBLK7425,Mertz LLC,+1-415-407-4446,+1-203-785-2346,smarmyon1k@twitpic.com,smarmyon1k.twitpic.com,envisioneer interactive synergies,California,San Francisco,0741 Forest Dale Avenue,25,94137,near Plaza,631455,OFZ3716,631455@OFZ3716
58,VRME2798,Kerluke-Fadel,+1-303-536-4346,+1-540-962-9600,omacpherson1l@utexas.edu,omacpherson1l.utexas.edu,iterate granular mindshare,Colorado,Denver,17979 Oakridge Place,88,80279,near Hospital,896665,JM2351,896665@JM2351
59,IOXQ3596,"Langworth, Armstrong and Keeling",+1-334-159-1205,+1-915-269-7585,jbuckell1m@ow.ly,jbuckell1m.ow.ly,engage distributed mindshare,Alabama,Montgomery,5139 Fisk Place,7,36104,opposite Hospital,197242,OX9027,197242@OX9027
60,IMJJ7276,"Brekke, Corwin and Beatty",+1-305-725-6223,+1-281-686-9718,tsmithers1n@va.gov,tsmithers1n.va.gov,implement real-time markets,Florida,Miami,71 Tomscot Alley,17,33147,near Insurance Company,895817,PBB6344,895817@PBB6344
61,IPPY0241,Towne LLC,+1-862-877-8320,+1-502-184-2214,bgowdridge1o@csmonitor.com,bgowdridge1o.csmonitor.com,orchestrate viral partnerships,New Jersey,Newark,1506 Ronald Regan Crossing,25,7188,near Insurance Company,623607,KS8397,623607@KS8397
62,NBRL7993,Gerlach-Ferry,+1-505-671-0198,+1-718-183-2466,kwainscoat1p@lycos.com,kwainscoat1p.lycos.com,visualize revolutionary infrastructures,New Mexico,Santa Fe,984 Blue Bill Park Crossing,65,87505,near Hospital,521294,WBW7871,521294@WBW7871
63,LLQZ0089,"Williamson, Harris and Shanahan",+1-956-292-3464,+1-305-494-5482,thusband1q@unicef.org,thusband1q.unicef.org,utilize one-to-one synergies,Texas,Laredo,3 John Wall Pass,34,78044,near Insurance Company,885387,YL1987,885387@YL1987
64,RVBU8517,"Streich, Trantow and Jenkins",+1-727-484-1947,+1-412-974-9073,ifaulks1r@si.edu,ifaulks1r.si.edu,productize sticky eyeballs,Florida,Saint Petersburg,71230 Russell Hill,39,33742,near Insurance Company,251200,BDAK6644,251200@BDAK6644
65,IERS7317,Brown-Pacocha,+1-217-788-0712,+1-850-960-3137,bmcnutt1s@simplemachines.org,bmcnutt1s.simplemachines.org,strategize one-to-one systems,Illinois,Decatur,84 Twin Pines Park,42,62525,near Lake,497832,KTUO9056,497832@KTUO9056
66,KCBN1942,"Connelly, DuBuque and Konopelski",+1-325-517-2301,+1-619-585-4595,pcissen1t@digg.com,pcissen1t.digg.com,reintermediate bleeding-edge relationships,Texas,Abilene,73777 Sunnyside Park,16,79605,near Plaza,784618,JNK7371,784618@JNK7371
67,PLGI4401,"Klein, Quigley and Reichert",+1-404-144-6346,,ldavana1u@cbslocal.com,ldavana1u.cbslocal.com,synergize viral infrastructures,Georgia,Atlanta,31845 Judy Alley,83,31136,near Plaza,568957,AFZ5810,568957@AFZ5810
68,AOSN5710,"Oberbrunner, Jakubowski and Considine",+1-210-108-2120,,kgraffham1v@army.mil,kgraffham1v.army.mil,grow sexy partnerships,Texas,San Antonio,6332 Moland Trail,83,78235,opposite Hospital,180491,TRK1570,180491@TRK1570
69,ZJGR0138,Hamill-McClure,+1-503-830-7215,+1-240-195-7325,ntebbutt1w@si.edu,ntebbutt1w.si.edu,grow best-of-breed relationships,Oregon,Portland,8 Mosinee Way,27,97221,near Lake,444713,GM1293,444713@GM1293
70,QVPE3908,Conroy-Botsford,+1-408-405-0654,+1-713-617-4280,rchettle1x@pcworld.com,rchettle1x.pcworld.com,strategize world-class relationships,California,San Jose,65 Petterle Avenue,78,95123,opposite Hospital,770863,OBZ8126,770863@OBZ8126
71,VVBB9720,Gibson-Ritchie,+1-859-667-9869,+1-216-129-4444,fcheccuzzi1y@nbcnews.com,fcheccuzzi1y.nbcnews.com,empower end-to-end web-readiness,Kentucky,Lexington,818 Farmco Street,90,40524,near Hospital,126356,FB0691,126356@FB0691
72,NJZE8434,Kunde-Breitenberg,+1-919-302-4044,+1-361-991-8182,krochelle1z@trellian.com,krochelle1z.trellian.com,streamline magnetic mindshare,North Carolina,Raleigh,0074 Golf Court,86,27690,near Insurance Company,869361,NO8660,869361@NO8660
73,VOXL5524,Lowe-Satterfield,+1-775-916-9634,+1-609-110-1392,rcourteney20@adobe.com,rcourteney20.adobe.com,strategize global systems,Nevada,Sparks,803 Esker Drive,67,89436,near Hospital,941176,ZZX8806,941176@ZZX8806
74,DVLE3334,Jast LLC,+1-954-706-4987,+1-702-292-2699,thayhow21@harvard.edu,thayhow21.harvard.edu,repurpose turn-key web-readiness,Florida,West Palm Beach,53 Dovetail Terrace,52,33411,near Lake,821901,JF3214,821901@JF3214
75,DTDJ4834,Osinski-Heathcote,+1-502-692-2457,+1-309-978-7018,kalesin22@nsw.gov.au,kalesin22.nsw.gov.au,drive end-to-end experiences,Kentucky,Louisville,01744 Sloan Terrace,28,40233,near Insurance Company,888383,ZKA4284,888383@ZKA4284
76,UZMZ2401,"Jakubowski, Beer and Pfannerstill",+1-540-128-7321,+1-713-461-5664,mdressell23@discovery.com,mdressell23.discovery.com,enable cross-media metrics,Virginia,Roanoke,671 Golf Lane,27,24024,near Lake,429399,WGDC6056,429399@WGDC6056
77,HXRZ0350,Heller Inc,+1-334-598-8680,,ngoddman24@trellian.com,ngoddman24.trellian.com,utilize innovative markets,Alabama,Montgomery,5 Graceland Plaza,17,36114,near Insurance Company,370566,APD7546,370566@APD7546
78,QLQF5507,Towne-Kunde,+1-816-971-6889,+1-305-944-4165,psimonds25@networkadvertising.org,psimonds25.networkadvertising.org,expedite impactful niches,Missouri,Saint Joseph,7367 Summit Parkway,43,64504,near Plaza,599768,BDKR6148,599768@BDKR6148
79,IFTO5886,Wyman LLC,+1-813-803-9839,+1-314-757-7376,cstanyard26@blogger.com,cstanyard26.blogger.com,scale bleeding-edge action-items,Florida,Tampa,2128 Jana Way,2,33673,near Plaza,862490,BIXA4695,862490@BIXA4695
80,RRVJ7669,Tromp-Pagac,+1-212-730-8267,,ktomlett27@barnesandnoble.com,ktomlett27.barnesandnoble.com,utilize granular partnerships,New York,Jamaica,00630 Service Street,71,11499,near Plaza,756514,QZH3733,756514@QZH3733
81,QCXP2575,Nicolas-Treutel,+1-336-351-3329,+1-754-227-4810,tbainton28@nih.gov,tbainton28.nih.gov,generate virtual systems,North Carolina,Greensboro,8622 Bartillon Circle,60,27425,near Insurance Company,220616,XYOI5635,220616@XYOI5635
82,FNAJ5111,Gleichner LLC,+1-712-560-8801,+1-952-987-7294,bcarley29@multiply.com,bcarley29.multiply.com,streamline vertical networks,Iowa,Sioux City,25 Hoepker Crossing,77,51110,near Insurance Company,506914,OWOV5303,506914@OWOV5303
83,QUGS0582,Toy Inc,+1-352-314-7865,+1-912-782-8302,shauch2a@csmonitor.com,shauch2a.csmonitor.com,leverage rich e-markets,Florida,Brooksville,545 Schurz Point,40,34605,near Plaza,739993,TJJ6239,739993@TJJ6239
84,QZTV9826,Streich-Kerluke,+1-814-171-8464,+1-347-602-9898,mgideon2b@tuttocitta.it,mgideon2b.tuttocitta.it,monetize robust web-readiness,Pennsylvania,Erie,78 Dunning Crossing,74,16534,near Lake,769538,KVJ6935,769538@KVJ6935
85,SONW5845,McClure LLC,+1-217-287-6710,+1-850-360-5856,aferia2c@ftc.gov,aferia2c.ftc.gov,architect virtual convergence,Illinois,Springfield,5895 Waywood Center,13,62776,near Insurance Company,970058,FVD0272,970058@FVD0272
86,SMIC8754,Beatty LLC,+1-646-516-8579,+1-626-924-7109,asibery2d@prweb.com,asibery2d.prweb.com,drive plug-and-play channels,New York,New York City,911 Dawn Place,44,10155,opposite Hospital,836172,TGY8008,836172@TGY8008
87,VEJZ8216,Macejkovic and Sons,+1-214-421-9434,+1-313-929-4115,lcore2e@stanford.edu,lcore2e.stanford.edu,repurpose visionary portals,Texas,Dallas,2 Spaight Trail,22,75260,near Insurance Company,966153,JVBC4889,966153@JVBC4889
88,NEZR7990,"Welch, Gibson and Greenfelder",+1-239-899-9029,+1-216-414-9770,gganiclef2f@apache.org,gganiclef2f.apache.org,innovate plug-and-play communities,Florida,Fort Myers,7 Superior Parkway,90,33906,near Lake,508128,SEN5353,508128@SEN5353
89,NUXB9731,Bauch-Champlin,+1-412-238-8998,+1-619-868-6038,clillyman2g@rakuten.co.jp,clillyman2g.rakuten.co.jp,reinvent efficient platforms,Pennsylvania,Pittsburgh,9 Utah Circle,14,15205,near Lake,650731,TWUI1159,650731@TWUI1159
90,PXPP3255,"Becker, Luettgen and McLaughlin",+1-515-583-4669,+1-505-507-6967,malbert2h@furl.net,malbert2h.furl.net,innovate strategic networks,Iowa,Des Moines,58282 Pleasure Hill,69,50936,near Plaza,318432,DVO9422,318432@DVO9422
91,LMCQ6117,Boyle LLC,+1-616-821-3801,+1-405-852-7513,cnesfield2i@independent.co.uk,cnesfield2i.independent.co.uk,facilitate open-source eyeballs,Michigan,Grand Rapids,38 Village Parkway,12,49505,near Insurance Company,703128,YZDM8666,703128@YZDM8666
92,TBYY8405,"Lubowitz, Aufderhar and Murphy",+1-763-513-5808,+1-325-187-5609,sledekker2j@lulu.com,sledekker2j.lulu.com,incubate frictionless applications,Minnesota,Minneapolis,3006 Katie Park,51,55446,opposite Hospital,549228,FQM7919,549228@FQM7919
93,DLZC9918,Krajcik-Kirlin,+1-402-164-4129,,jbaldwin2k@wikispaces.com,jbaldwin2k.wikispaces.com,orchestrate one-to-one vortals,Nebraska,Lincoln,9 Killdeer Junction,99,68505,near Insurance Company,119224,KTRO1445,119224@KTRO1445
94,GXFC2581,"Stoltenberg, Hane and Haag",+1-508-672-1246,+1-513-863-7130,moris2l@addtoany.com,moris2l.addtoany.com,empower distributed initiatives,Massachusetts,Brockton,1199 South Road,85,2305,near Insurance Company,534037,QCOT8906,534037@QCOT8906
95,GUGR6482,"Muller, Weimann and Cassin",+1-501-149-5233,+1-408-848-1674,gbaignard2m@unc.edu,gbaignard2m.unc.edu,transform open-source models,Arkansas,Little Rock,25 Oxford Court,7,72222,near Plaza,827385,CF4215,827385@CF4215
96,DILT3379,Nader-Block,+1-616-154-3335,+1-304-120-6416,rcrichton2n@tamu.edu,rcrichton2n.tamu.edu,generate bleeding-edge eyeballs,Michigan,Grand Rapids,839 Comanche Drive,43,49510,near Insurance Company,602609,XFI3896,602609@XFI3896
97,ZOWJ0946,Lockman-Schmeler,+1-206-947-4207,+1-319-775-5963,mkaindl2o@free.fr,mkaindl2o.free.fr,grow cutting-edge web services,Washington,Seattle,2 Dovetail Place,23,98115,opposite Hospital,611685,MPE9343,611685@MPE9343
98,HRWV0070,Pfeffer Inc,+1-626-258-2008,+1-336-742-6255,maloway2p@comsenz.com,maloway2p.comsenz.com,monetize dynamic networks,California,Pasadena,4 Dennis Way,100,91117,near Insurance Company,162070,FXI7159,162070@FXI7159
99,HEAJ0130,Olson-Vandervort,+1-806-229-3305,,felldred2q@ask.com,felldred2q.ask.com,recontextualize out-of-the-box metrics,Texas,Amarillo,223 Arkansas Alley,38,79116,near Insurance Company,967452,VE9529,967452@VE9529
100,FONV3544,Homenick Group,+1-859-524-7146,+1-972-177-7500,boneill2r@opensource.org,boneill2r.opensource.org,unleash open-source infrastructures,Kentucky,Lexington,865 Golf View Avenue,20,40515,near Lake,993335,LPVZ0272,993335@LPVZ0272
101,FUKH3653,Hand-Lindgren,+1-601-118-1595,+1-860-805-4110,bbrownscombe2s@clickbank.net,bbrownscombe2s.clickbank.net,integrate transparent e-services,Mississippi,Jackson,19941 Merry Way,42,39210,opposite Hospital,516439,BPD4416,516439@BPD4416
102,TRNH3101,"Tillman, Hills and Stracke",+1-818-289-6968,+1-910-265-2983,dcreigan2t@unicef.org,dcreigan2t.unicef.org,architect best-of-breed supply-chains,California,Torrance,5888 Corry Trail,69,90510,near Lake,611982,JD9093,611982@JD9093
103,MFQI4931,Ruecker-Connelly,+1-602-847-6875,+1-316-641-0479,bpurchon2u@nytimes.com,bpurchon2u.nytimes.com,morph turn-key mindshare,Arizona,Phoenix,68 Haas Center,9,85010,near Lake,397080,XEVC5674,397080@XEVC5674
104,IOJV0059,"Waelchi, Luettgen and Mraz",+1-415-621-6574,+1-804-948-3326,eguinness2v@ning.com,eguinness2v.ning.com,benchmark cross-media content,California,San Francisco,5 Judy Plaza,95,94177,near Lake,899869,AB3247,899869@AB3247
105,OMWK8986,"Wunsch, Goodwin and Howe",+1-774-711-1897,+1-806-900-6182,bhandyside2w@xrea.com,bhandyside2w.xrea.com,matrix compelling eyeballs,Massachusetts,Worcester,5 Eastlawn Plaza,97,1610,near Hospital,297805,PNTL4965,297805@PNTL4965
106,FXZV3183,Considine LLC,+1-916-274-0678,+1-919-587-0604,mnano2x@ox.ac.uk,mnano2x.ox.ac.uk,e-enable bricks-and-clicks infomediaries,California,Sacramento,7 Birchwood Junction,100,95813,near Plaza,276197,BAY2643,276197@BAY2643
107,RAFD6758,Hills Group,+1-571-328-4789,+1-804-792-7247,qlimpertz2y@gmpg.org,qlimpertz2y.gmpg.org,extend sexy e-markets,Virginia,Arlington,48 South Way,23,22244,near Lake,949276,PTC4150,949276@PTC4150
108,MGHZ6699,"Graham, Konopelski and Ryan",+1-760-196-2126,+1-816-480-8940,ktwidle2z@bandcamp.com,ktwidle2z.bandcamp.com,redefine seamless infrastructures,California,Escondido,84 Prentice Avenue,12,92030,near Lake,187970,FHG7956,187970@FHG7956
109,KBPZ8231,"Douglas, Herzog and Steuber",+1-336-695-7332,+1-801-415-4676,gbrixey30@umich.edu,gbrixey30.umich.edu,engineer efficient niches,North Carolina,Greensboro,4 Jenna Terrace,25,27404,near Hospital,243617,RL8331,243617@RL8331
110,BYEC1180,Brakus-Lemke,+1-253-721-1923,,nputland31@sphinn.com,nputland31.sphinn.com,drive viral action-items,Washington,Lakewood,31472 Summerview Drive,15,98498,near Lake,321374,MAJQ6056,321374@MAJQ6056
111,BQRZ2861,Bergstrom-Nitzsche,+1-941-309-7979,+1-212-716-4727,twogdon32@hp.com,twogdon32.hp.com,productize end-to-end technologies,Florida,Seminole,8161 Sundown Lane,87,34642,near Insurance Company,748038,CMCU0545,748038@CMCU0545
112,WGEV3719,"Jaskolski, Stark and Emmerich",+1-813-196-4642,+1-832-460-0505,ascintsbury33@mozilla.com,ascintsbury33.mozilla.com,deliver B2C portals,Florida,Tampa,294 Brickson Park Place,46,33661,opposite Hospital,896644,WBN9366,896644@WBN9366
113,REDG6021,Donnelly Inc,+1-813-965-6817,+1-515-197-8122,hsorsbie34@epa.gov,hsorsbie34.epa.gov,implement B2C ROI,Florida,Tampa,809 Lien Street,59,33647,near Insurance Company,346359,XRU5849,346359@XRU5849
114,LXHC6433,"Wiegand, Reynolds and Streich",+1-803-465-4628,+1-208-826-0714,akeal35@slate.com,akeal35.slate.com,visualize dynamic models,South Carolina,Columbia,40383 Bonner Park,54,29240,near Insurance Company,711709,YGZG8225,711709@YGZG8225
115,TYPH6179,Kling-Carroll,+1-208-692-1991,+1-571-898-9708,bmclarty36@telegraph.co.uk,bmclarty36.telegraph.co.uk,envisioneer viral metrics,Idaho,Pocatello,22 Debs Avenue,55,83206,near Hospital,178822,MNGQ5578,178822@MNGQ5578
116,KRPX9549,"Morar, Parisian and McDermott",+1-202-452-6584,,ddufall37@nifty.com,ddufall37.nifty.com,enable end-to-end partnerships,District of Columbia,Washington,1 Village Road,46,20319,near Lake,331945,IQ2988,331945@IQ2988
117,FPSB6517,Bergnaum-Schmidt,+1-251-503-3571,+1-316-952-9028,mcartner38@unblog.fr,mcartner38.unblog.fr,transition vertical web services,Alabama,Mobile,581 Schurz Lane,70,36605,near Hospital,888418,YOE7903,888418@YOE7903
118,LORP1837,"Kub, Kunde and Hansen",+1-609-691-7346,+1-702-495-2506,scheavin39@google.com.au,scheavin39.google.com.au,leverage impactful metrics,New Jersey,Trenton,8 Tony Trail,9,8608,opposite Hospital,623656,WN9077,623656@WN9077
119,SGSI1866,Waters-Hane,+1-410-218-3744,,kwaslin3a@ebay.com,kwaslin3a.ebay.com,transform scalable bandwidth,Maryland,Ridgely,2259 Reindahl Avenue,75,21684,near Hospital,561196,AM0842,561196@AM0842
120,YGOR9384,Weissnat LLC,+1-973-243-9087,+1-352-937-0273,jeasun3b@imgur.com,jeasun3b.imgur.com,generate virtual infomediaries,New Jersey,Paterson,74381 Sutteridge Avenue,87,7522,near Insurance Company,748876,VDZV2726,748876@VDZV2726
121,EJJF2215,Bogisich-Wyman,+1-318-421-1842,+1-785-482-7968,tnewlove3c@bloglovin.com,tnewlove3c.bloglovin.com,reintermediate back-end channels,Louisiana,Shreveport,518 Loomis Crossing,42,71105,near Lake,364814,WGS4548,364814@WGS4548
122,MEIZ9132,Wiza and Sons,+1-415-116-7647,+1-603-647-2204,ghallifax3d@printfriendly.com,ghallifax3d.printfriendly.com,scale integrated technologies,California,San Francisco,09657 8th Park,6,94121,opposite Hospital,616621,QGQT1517,616621@QGQT1517
123,DIKH3107,Ritchie Inc,+1-717-783-3702,+1-512-302-5604,cbackes3e@photobucket.com,cbackes3e.photobucket.com,synthesize sexy infomediaries,Pennsylvania,Lancaster,6267 Westport Point,51,17622,near Lake,530855,AQ7739,530855@AQ7739
124,QPFH6833,Abshire and Sons,+1-860-365-1517,+1-801-578-5409,rgiacobelli3f@blogs.com,rgiacobelli3f.blogs.com,exploit strategic deliverables,Connecticut,Hartford,14404 Jenifer Alley,34,6152,near Insurance Company,990320,FY8463,990320@FY8463
125,PDSB8515,"Gutkowski, Zemlak and Farrell",+1-412-249-9943,+1-520-863-8824,grekes3g@japanpost.jp,grekes3g.japanpost.jp,reinvent leading-edge interfaces,Pennsylvania,Mc Keesport,627 Londonderry Trail,90,15134,opposite Hospital,756526,TL9439,756526@TL9439
126,VKDO7737,"Bechtelar, Legros and Moen",+1-562-886-1460,+1-318-347-8391,cstraun3h@list-manage.com,cstraun3h.list-manage.com,utilize holistic functionalities,California,Long Beach,23 La Follette Parkway,25,90847,near Hospital,827811,YE4104,827811@YE4104
127,XKMQ9843,Swift-Quitzon,+1-850-579-5311,+1-832-895-2812,dchomiszewski3i@geocities.jp,dchomiszewski3i.geocities.jp,deliver cross-platform platforms,Florida,Panama City,6 Schmedeman Plaza,78,32405,near Lake,994441,MD2214,994441@MD2214
128,LDGT9238,Bernhard-Wilderman,+1-215-273-7842,+1-316-646-3167,rscragg3j@lulu.com,rscragg3j.lulu.com,synergize global experiences,Pennsylvania,Philadelphia,19 Hanover Lane,16,19131,near Hospital,368774,ZCH4690,368774@ZCH4690
129,SZKM1786,"Schoen, Watsica and Keeling",+1-225-962-1881,+1-602-123-8722,hisacsson3k@mlb.com,hisacsson3k.mlb.com,whiteboard transparent paradigms,Louisiana,Baton Rouge,9 Brown Street,65,70883,opposite Hospital,507073,IHJK6513,507073@IHJK6513
130,KNIM7239,"Smith, McLaughlin and Boehm",+1-713-427-3725,+1-304-377-7626,mnewing3l@google.nl,mnewing3l.google.nl,brand interactive e-tailers,Texas,Houston,69898 Birchwood Avenue,91,77260,near Plaza,316782,OHYR0065,316782@OHYR0065
131,ZJGP0238,McGlynn-Predovic,+1-318-781-2554,+1-317-759-1114,cdusting3m@51.la,cdusting3m.51.la,leverage best-of-breed vortals,Louisiana,Monroe,57075 Dapin Hill,49,71213,near Lake,129099,UF5767,129099@UF5767
132,ZUIO7156,"Bechtelar, Huels and Bernier",+1-916-304-5922,+1-813-906-7314,fpoultney3n@freewebs.com,fpoultney3n.freewebs.com,transform cross-media interfaces,California,Sacramento,40218 Mosinee Way,90,95818,near Hospital,933805,KC9128,933805@KC9128
133,SXED4823,Runolfsson LLC,+1-719-692-3047,+1-701-892-8515,renns3o@amazon.com,renns3o.amazon.com,incentivize 24/365 networks,Colorado,Colorado Springs,89 Pleasure Road,96,80940,opposite Hospital,831761,GM8347,831761@GM8347
134,FSQT1237,Reichel-Ledner,+1-843-538-5410,+1-205-159-4972,ijohansson3p@yelp.com,ijohansson3p.yelp.com,envisioneer granular web services,South Carolina,Charleston,159 Green Ridge Center,95,29424,opposite Hospital,454240,BJA9554,454240@BJA9554
135,ABDS5521,Weber LLC,+1-717-131-5658,+1-573-978-9652,fjoseland3q@com.com,fjoseland3q.com.com,integrate dynamic interfaces,Pennsylvania,Harrisburg,64026 Vermont Court,76,17126,opposite Hospital,591727,FU7103,591727@FU7103
136,CLAC5382,McCullough-Willms,+1-617-968-2862,+1-702-104-9853,atrengove3r@timesonline.co.uk,atrengove3r.timesonline.co.uk,incentivize turn-key relationships,Massachusetts,Boston,34380 Bowman Road,40,2203,near Plaza,357867,HLOU2217,357867@HLOU2217
137,SMON0506,Hessel Inc,+1-760-777-5536,+1-713-485-5378,bitzcovichch3s@meetup.com,bitzcovichch3s.meetup.com,incubate vertical users,California,Escondido,391 Ludington Alley,15,92030,near Plaza,367115,GFAK9028,367115@GFAK9028
138,GZNX5935,Brown Group,+1-309-984-6273,+1-765-251-7768,tpetrik3t@rakuten.co.jp,tpetrik3t.rakuten.co.jp,cultivate B2C eyeballs,Illinois,Peoria,11 Holmberg Trail,10,61640,near Hospital,378703,DFXR4353,378703@DFXR4353
139,ZJMS5826,Farrell Group,+1-217-483-3718,+1-515-906-4827,rberthot3u@reuters.com,rberthot3u.reuters.com,unleash sticky e-commerce,Illinois,Springfield,017 Oakridge Pass,42,62756,near Lake,789058,HM1837,789058@HM1837
140,UBMC6215,Marks-Gerhold,+1-202-968-4221,+1-313-422-8180,vdenkel3v@xinhuanet.com,vdenkel3v.xinhuanet.com,cultivate world-class initiatives,District of Columbia,Washington,03805 Texas Park,1,20380,near Insurance Company,143870,EFKH1763,143870@EFKH1763
141,PLEO0835,"Walter, Bauch and D'Amore",+1-316-627-0503,+1-423-168-6965,dderham3w@time.com,dderham3w.time.com,engage frictionless models,Kansas,Wichita,820 Anderson Circle,73,67210,near Insurance Company,929132,RVI9976,929132@RVI9976
142,DQZH8940,Kuhic-Paucek,+1-404-492-6612,+1-734-452-4258,holoinn3x@howstuffworks.com,holoinn3x.howstuffworks.com,embrace seamless initiatives,Georgia,Atlanta,7258 West Drive,69,31136,opposite Hospital,112169,KE2485,112169@KE2485
143,NJHB9463,Schiller-Klein,+1-330-786-7627,+1-217-635-0706,kdukes3y@ftc.gov,kdukes3y.ftc.gov,brand end-to-end relationships,Ohio,Akron,38 Welch Parkway,24,44321,near Plaza,545237,RMD2327,545237@RMD2327
144,XPGE7723,Homenick-Rau,+1-650-383-2777,+1-614-692-3820,smcgeachy3z@nih.gov,smcgeachy3z.nih.gov,synthesize rich functionalities,California,Redwood City,26765 Green Ridge Point,12,94064,near Lake,190197,KV4237,190197@KV4237
145,VJCU3588,"Eichmann, Bogan and Rosenbaum",+1-817-830-0605,+1-216-340-5569,mrumbelow40@cafepress.com,mrumbelow40.cafepress.com,grow best-of-breed infomediaries,Texas,Arlington,82981 Pierstorff Pass,17,76004,near Insurance Company,366804,KA0165,366804@KA0165
146,FAWR3887,Weimann Group,+1-214-846-1485,+1-260-564-2239,friddiough41@typepad.com,friddiough41.typepad.com,revolutionize seamless channels,Texas,Dallas,83382 Lukken Park,60,75392,near Insurance Company,803958,BWLP5762,803958@BWLP5762
147,PWMV0666,Tromp LLC,+1-412-701-8138,+1-607-613-6362,edrioli42@g.co,edrioli42.g.co,expedite viral e-business,Pennsylvania,Pittsburgh,43 Pleasure Hill,21,15255,near Plaza,441455,RIGJ1643,441455@RIGJ1643
148,JCUY5705,Hilpert-Ziemann,+1-408-841-0211,+1-215-987-6298,cmcadam43@arstechnica.com,cmcadam43.arstechnica.com,monetize cross-media systems,California,San Jose,86 Monica Trail,43,95160,near Plaza,729979,OPS4953,729979@OPS4953
149,JLZT5315,Fritsch Group,+1-612-512-5320,+1-904-435-9055,rmacken44@geocities.jp,rmacken44.geocities.jp,brand world-class ROI,Minnesota,Minneapolis,935 Ryan Place,82,55407,near Lake,927369,ZUS6951,927369@ZUS6951
150,LHQA1798,Hessel-Mohr,+1-210-595-4317,+1-323-242-8023,thounsom45@yahoo.co.jp,thounsom45.yahoo.co.jp,redefine interactive synergies,Texas,San Antonio,89 2nd Street,71,78220,near Plaza,825010,BDN8154,825010@BDN8154
151,WNGU9119,"DuBuque, Spinka and Mueller",+1-860-939-9795,+1-806-719-8351,dlecount46@opensource.org,dlecount46.opensource.org,embrace best-of-breed web services,Connecticut,Hartford,47840 Leroy Drive,33,6152,opposite Hospital,556070,LKIO0287,556070@LKIO0287
152,IVRC2151,Robel-Kemmer,+1-704-458-4948,,jbeckson47@booking.com,jbeckson47.booking.com,redefine revolutionary platforms,North Carolina,Charlotte,0 Waxwing Center,47,28230,near Lake,757628,CX6443,757628@CX6443
153,GGLB2804,Spinka and Sons,+1-415-513-0779,+1-719-985-6531,dlivesley48@sbwire.com,dlivesley48.sbwire.com,drive dot-com functionalities,California,San Francisco,62576 Surrey Hill,1,94132,near Hospital,755680,TIE9865,755680@TIE9865
154,QJIV5010,"White, Haley and Jaskolski",+1-972-777-3493,+1-407-370-6126,kglowinski49@theglobeandmail.com,kglowinski49.theglobeandmail.com,target B2B e-commerce,Texas,Garland,1 Fair Oaks Avenue,92,75044,near Insurance Company,855315,ZJG6293,855315@ZJG6293
155,DWYP2894,Erdman-Lind,+1-206-154-1771,+1-251-298-9759,mtrunchion4a@ezinearticles.com,mtrunchion4a.ezinearticles.com,mesh proactive architectures,Washington,Seattle,977 Ruskin Plaza,14,98185,opposite Hospital,330139,JV7800,330139@JV7800
156,USKQ9266,Nicolas and Sons,+1-816-925-8360,+1-916-490-6276,cgorvin4b@house.gov,cgorvin4b.house.gov,leverage robust metrics,Missouri,Independence,1 Bluestem Trail,19,64054,near Hospital,873843,SFY0649,873843@SFY0649
157,GLRH8914,"Will, Hackett and Grant",+1-916-687-4104,+1-813-518-5567,lsture4c@weebly.com,lsture4c.weebly.com,synergize seamless e-services,California,Sacramento,8432 Sage Trail,74,94280,near Plaza,362555,LGO1444,362555@LGO1444
158,ZWIM4715,Oberbrunner-Jenkins,+1-864-519-1253,+1-517-656-0170,wbutterick4d@google.nl,wbutterick4d.google.nl,synthesize value-added web services,South Carolina,Greenville,1 Morrow Point,20,29615,near Lake,194064,TE9072,194064@TE9072
159,DAUZ1807,"Thompson, Streich and Effertz",+1-515-550-8967,+1-678-817-7530,jclementucci4e@etsy.com,jclementucci4e.etsy.com,mesh ubiquitous action-items,Iowa,Des Moines,0797 Claremont Alley,97,50362,near Hospital,412294,UV5751,412294@UV5751
160,HUKV7536,Braun-Medhurst,+1-602-450-6345,+1-260-551-4876,alinnemann4f@goo.gl,alinnemann4f.goo.gl,utilize extensible action-items,Arizona,Phoenix,9073 Scofield Avenue,50,85062,opposite Hospital,940246,KXC3421,940246@KXC3421
161,ZQNA2128,"Swaniawski, Toy and Stokes",+1-480-124-4205,+1-864-459-5715,jtomaszewicz4g@dot.gov,jtomaszewicz4g.dot.gov,grow 24/7 e-business,Arizona,Scottsdale,231 Oxford Park,48,85255,near Insurance Company,654923,HNY0463,654923@HNY0463
162,IVHX7214,Nikolaus-Ritchie,+1-208-602-1911,+1-757-144-1143,mdudny4h@dyndns.org,mdudny4h.dyndns.org,maximize visionary experiences,Idaho,Idaho Falls,493 Gulseth Plaza,37,83405,near Lake,389211,BY0843,389211@BY0843
163,VAYC8474,Stracke LLC,+1-336-822-6907,+1-407-203-5745,kcornau4i@google.cn,kcornau4i.google.cn,incentivize collaborative relationships,North Carolina,Greensboro,1 Fallview Lane,11,27499,near Lake,554832,AFSY8459,554832@AFSY8459
164,FESI3512,Hammes-Gerhold,+1-713-126-2026,+1-309-108-2659,chaylett4j@usgs.gov,chaylett4j.usgs.gov,cultivate bricks-and-clicks metrics,Texas,Houston,3 Village Junction,88,77281,opposite Hospital,124268,AVA9953,124268@AVA9953
165,OFPI3591,Prohaska-Dickens,+1-305-403-5040,+1-305-923-9389,pmaher4k@berkeley.edu,pmaher4k.berkeley.edu,transition clicks-and-mortar e-services,Florida,Miami,10 Commercial Crossing,22,33175,near Lake,161437,YQCN8792,161437@YQCN8792
166,VQUM9881,Murphy LLC,+1-573-333-4081,+1-214-594-0599,ddunkerley4l@skyrock.com,ddunkerley4l.skyrock.com,transition synergistic eyeballs,Missouri,Jefferson City,413 3rd Plaza,86,65105,near Plaza,505662,YYCS6339,505662@YYCS6339
167,CXDY4431,"Cremin, Franecki and Baumbach",+1-936-616-1140,+1-816-999-3106,rmacarthur4m@google.pl,rmacarthur4m.google.pl,embrace impactful convergence,Texas,Huntsville,5107 Wayridge Lane,65,77343,near Hospital,727047,DRE3116,727047@DRE3116
168,QRIO7980,Kunze-Wunsch,+1-202-760-5467,+1-808-277-2756,dvarnes4n@oaic.gov.au,dvarnes4n.oaic.gov.au,grow scalable users,District of Columbia,Washington,9302 Sherman Parkway,65,20226,near Lake,706497,NTP8893,706497@NTP8893
169,ONTE4832,"Senger, Gibson and Klocko",+1-316-918-7303,,fbenjamin4o@quantcast.com,fbenjamin4o.quantcast.com,enable vertical communities,Kansas,Wichita,24 Myrtle Park,8,67236,near Plaza,728271,EZKC3998,728271@EZKC3998
170,KLJW9114,Wilkinson and Sons,+1-407-214-4894,+1-202-375-1932,ebrittin4p@liveinternet.ru,ebrittin4p.liveinternet.ru,innovate 24/7 communities,Florida,Orlando,57809 Pleasure Pass,57,32885,opposite Hospital,904620,LI7325,904620@LI7325
171,CJIY3186,"Aufderhar, Johnson and Nienow",+1-812-885-0215,+1-973-892-6294,naubray4q@globo.com,naubray4q.globo.com,brand turn-key eyeballs,Indiana,Evansville,71525 Marquette Trail,52,47705,opposite Hospital,832296,LX0844,832296@LX0844
172,AGEF9502,Dach-Rolfson,+1-225-561-7874,+1-770-754-6627,tgrahlmans4r@angelfire.com,tgrahlmans4r.angelfire.com,aggregate bricks-and-clicks e-services,Louisiana,Baton Rouge,4820 Main Street,43,70805,near Hospital,554904,JQX1965,554904@JQX1965
173,RPJA1098,"Steuber, Torphy and Moore",+1-775-103-9879,+1-212-617-6558,rsquibbs4s@fema.gov,rsquibbs4s.fema.gov,utilize 24/365 deliverables,Nevada,Reno,2087 Almo Point,89,89505,near Lake,663785,AG0664,663785@AG0664
174,RERB0026,"Hilll, O'Hara and Lueilwitz",+1-207-397-1547,+1-570-880-2619,sroantree4t@livejournal.com,sroantree4t.livejournal.com,implement synergistic mindshare,Maine,Portland,5695 Forest Dale Pass,64,4109,near Hospital,915986,IGYX6126,915986@IGYX6126
175,MTQW2118,Bernhard and Sons,+1-941-135-1385,,griddles4u@elegantthemes.com,griddles4u.elegantthemes.com,reintermediate viral convergence,Florida,Port Charlotte,857 Waywood Road,36,33954,near Lake,417631,DYKC1318,417631@DYKC1318
176,IWXP9156,Parker and Sons,+1-205-764-5416,+1-806-941-1594,mcraik4v@jalbum.net,mcraik4v.jalbum.net,repurpose value-added web services,Alabama,Birmingham,67 Luster Drive,37,35242,near Insurance Company,755450,UQB8591,755450@UQB8591
177,CHYZ5352,Cummings-Ullrich,+1-310-450-0731,+1-714-422-3649,cmessum4w@google.com,cmessum4w.google.com,matrix enterprise convergence,California,Santa Monica,5000 Carioca Street,55,90405,near Insurance Company,952257,WBK0595,952257@WBK0595
178,UZSA0697,Nikolaus-Barton,+1-215-514-1971,+1-832-539-4260,cdelascy4x@tumblr.com,cdelascy4x.tumblr.com,enhance leading-edge infomediaries,Pennsylvania,Philadelphia,9 Badeau Point,16,19104,near Plaza,623351,XVQ4635,623351@XVQ4635
179,GHMY9985,Casper Group,+1-734-717-3873,+1-314-328-3712,caleksankin4y@jugem.jp,caleksankin4y.jugem.jp,cultivate vertical metrics,Michigan,Ann Arbor,473 Lyons Alley,57,48107,opposite Hospital,799031,XO3097,799031@XO3097
180,DYYO6310,Boyle-Barton,+1-573-981-2740,+1-646-122-2210,smilch4z@boston.com,smilch4z.boston.com,enable global mindshare,Missouri,Jefferson City,4 Mosinee Park,14,65110,near Plaza,854264,DKD9805,854264@DKD9805
181,OCGK6956,Hammes LLC,+1-415-427-9488,+1-202-910-6199,rjonas50@vkontakte.ru,rjonas50.vkontakte.ru,visualize dynamic schemas,California,San Francisco,5125 Thierer Trail,90,94116,near Hospital,728113,YDC7994,728113@YDC7994
182,EUVT6506,Swaniawski-Rutherford,+1-301-507-6442,+1-217-223-0223,smacdirmid51@booking.com,smacdirmid51.booking.com,recontextualize vertical web services,Maryland,Bethesda,09 Anzinger Parkway,95,20892,near Hospital,637019,RWF2760,637019@RWF2760
183,JFOQ1321,Rosenbaum Group,+1-336-297-8109,+1-814-469-5084,gbelamy52@earthlink.net,gbelamy52.earthlink.net,reinvent viral interfaces,North Carolina,Greensboro,52 Independence Park,51,27415,near Hospital,148759,DIU0489,148759@DIU0489
184,FOGG0265,"Franecki, Lueilwitz and Armstrong",+1-405-514-1595,+1-212-386-4264,lreddyhoff53@kickstarter.com,lreddyhoff53.kickstarter.com,morph magnetic niches,Oklahoma,Oklahoma City,16 Garrison Court,100,73104,near Lake,843585,TS0273,843585@TS0273
185,TOWA6835,Adams LLC,+1-217-912-1656,,vvasechkin54@home.pl,vvasechkin54.home.pl,generate frictionless infomediaries,Illinois,Springfield,8 Haas Avenue,37,62756,opposite Hospital,654901,ZAJ1268,654901@ZAJ1268
186,HEWD3993,"Rice, Funk and Wisoky",+1-714-544-6579,+1-616-801-5558,agonnin55@mediafire.com,agonnin55.mediafire.com,transition bleeding-edge architectures,California,Anaheim,6809 Lien Pass,100,92812,near Plaza,417304,BLM6125,417304@BLM6125
187,MBAF6214,"Hane, Jerde and Schaefer",+1-541-870-9598,+1-251-579-8549,rgamblin56@purevolume.com,rgamblin56.purevolume.com,revolutionize one-to-one solutions,Oregon,Eugene,2750 Glendale Alley,24,97405,near Lake,817754,QQ0145,817754@QQ0145
188,WYCJ7731,Bernhard Group,+1-815-633-9875,+1-773-130-3517,charradence57@sciencedaily.com,charradence57.sciencedaily.com,grow cutting-edge supply-chains,Illinois,Rockford,33825 Ilene Trail,80,61105,near Insurance Company,489221,EZR2416,489221@EZR2416
189,QVGT9593,"Berge, Metz and Davis",+1-919-801-0089,+1-251-602-1139,dhousecraft58@dot.gov,dhousecraft58.dot.gov,transition enterprise methodologies,North Carolina,Raleigh,921 Pine View Hill,48,27658,opposite Hospital,364483,PTH6594,364483@PTH6594
190,TQIY3709,"Koelpin, Baumbach and Hand",+1-309-141-5207,+1-858-114-6802,dburtt59@illinois.edu,dburtt59.illinois.edu,empower web-enabled partnerships,Illinois,Peoria,3 Mitchell Trail,7,61629,opposite Hospital,821855,OMK1061,821855@OMK1061
191,UMBN0303,"Padberg, White and McKenzie",+1-414-640-0288,+1-858-706-8745,bilott5a@rediff.com,bilott5a.rediff.com,implement intuitive deliverables,Wisconsin,Milwaukee,48 8th Hill,47,53263,near Insurance Company,845330,RTS9271,845330@RTS9271
192,EPIW6215,"Roberts, Wunsch and Cronin",+1-323-948-1948,+1-336-886-8321,bcandelin5b@thetimes.co.uk,bcandelin5b.thetimes.co.uk,utilize bleeding-edge e-markets,California,Long Beach,8783 Center Pass,90,90805,near Plaza,493784,WNKQ2699,493784@WNKQ2699
193,WLRX8051,Hackett and Sons,+1-816-128-2544,+1-602-892-4311,ktutin5c@t-online.de,ktutin5c.t-online.de,leverage vertical platforms,Missouri,Kansas City,6 Emmet Avenue,73,64109,near Lake,986574,DFJK6219,986574@DFJK6219
194,QCKT8468,Streich-Friesen,+1-781-658-2788,+1-281-520-1249,eparkman5d@tinyurl.com,eparkman5d.tinyurl.com,repurpose holistic e-business,Massachusetts,Watertown,510 Dottie Alley,89,2472,near Hospital,921278,TWA0046,921278@TWA0046
195,RXQF3456,Nienow Inc,+1-646-474-4597,+1-610-712-6099,kskuse5e@microsoft.com,kskuse5e.microsoft.com,generate collaborative e-tailers,New York,New York City,4343 Brown Drive,98,10270,near Hospital,254043,CJ7455,254043@CJ7455
196,VDDF6612,Bode-Kemmer,+1-214-334-0010,,cokeefe5f@berkeley.edu,cokeefe5f.berkeley.edu,productize enterprise infrastructures,Texas,Dallas,84 Stang Road,84,75310,near Plaza,502727,GZF1688,502727@GZF1688
197,RRNE1501,"Predovic, Rippin and Huel",+1-469-203-6028,+1-251-986-4396,thigbin5g@wired.com,thigbin5g.wired.com,reintermediate front-end action-items,Texas,Dallas,7196 Bluejay Street,4,75231,near Plaza,637021,ZP4677,637021@ZP4677
198,TXUM1505,Shields and Sons,+1-701-260-4906,,bshervington5h@w3.org,bshervington5h.w3.org,embrace ubiquitous architectures,North Dakota,Bismarck,19677 Schmedeman Park,95,58505,near Hospital,872328,YBC6165,872328@YBC6165
199,LWAM7560,"Christiansen, Yost and Durgan",+1-501-535-1430,+1-562-930-3317,dpostill5i@wordpress.org,dpostill5i.wordpress.org,integrate interactive networks,Arkansas,North Little Rock,9147 Judy Place,82,72199,near Plaza,952427,DY3505,952427@DY3505
200,EHPG6962,"Mitchell, Kohler and McLaughlin",+1-832-339-3194,+1-919-931-1000,mfitzsimon5j@wikispaces.com,mfitzsimon5j.wikispaces.com,e-enable magnetic e-commerce,Texas,Houston,683 Melvin Park,3,77095,near Hospital,433708,WU2818,433708@WU2818
201,PUET8372,Daniel-Mertz,+1-707-972-1309,+1-214-550-6601,acayford5k@wp.com,acayford5k.wp.com,enable vertical experiences,California,Petaluma,306 Mosinee Place,46,94975,opposite Hospital,480083,EQY6261,480083@EQY6261
202,XKYW0165,"Oberbrunner, Nader and Gusikowski",+1-701-358-9534,+1-301-298-8325,hkearn5l@jiathis.com,hkearn5l.jiathis.com,target vertical web-readiness,North Dakota,Bismarck,63176 Charing Cross Trail,79,58505,near Plaza,533686,KM6689,533686@KM6689
203,SRFH5504,Mann-Pouros,+1-312-701-2917,+1-425-653-0664,glaviste5m@un.org,glaviste5m.un.org,embrace cutting-edge experiences,Illinois,Chicago,6 Farwell Pass,69,60657,near Lake,460390,MAEW2209,460390@MAEW2209
204,CIAB8374,Jakubowski-Macejkovic,+1-918-295-4720,+1-720-683-6834,mcrilley5n@twitter.com,mcrilley5n.twitter.com,transition open-source e-markets,Oklahoma,Tulsa,4 Chinook Avenue,92,74116,near Plaza,451459,FB8230,451459@FB8230
205,ULMW6154,"Quitzon, Larkin and Dibbert",+1-650-441-1854,+1-816-471-4312,jfronsek5o@fastcompany.com,jfronsek5o.fastcompany.com,repurpose end-to-end experiences,California,Redwood City,7 Glendale Drive,89,94064,near Hospital,908088,UD9593,908088@UD9593
206,QVKN9348,Witting-Rolfson,+1-734-531-3240,+1-502-288-0173,cclatworthy5p@blogspot.com,cclatworthy5p.blogspot.com,repurpose plug-and-play markets,Michigan,Ann Arbor,42 Hoepker Junction,96,48107,near Insurance Company,310677,LRR9139,310677@LRR9139
207,LITV3455,"Wyman, Hoppe and Welch",+1-717-461-4669,+1-910-746-5891,aglascott5q@hud.gov,aglascott5q.hud.gov,revolutionize magnetic metrics,Pennsylvania,York,1151 Morningstar Place,1,17405,opposite Hospital,442193,HGFJ5469,442193@HGFJ5469
208,VSNR0675,Stanton Group,+1-903-968-4136,,fwoltering5r@altervista.org,fwoltering5r.altervista.org,innovate holistic relationships,Texas,Tyler,78973 Novick Avenue,34,75710,opposite Hospital,289192,MKP0263,289192@MKP0263
209,EZTE0469,Schaden LLC,+1-785-972-1477,+1-347-491-9044,rspurett5s@indiegogo.com,rspurett5s.indiegogo.com,synergize one-to-one action-items,Kansas,Topeka,7 1st Lane,20,66617,near Hospital,501637,QYLW1590,501637@QYLW1590
210,ILLL3447,Turner-Eichmann,+1-813-456-6950,+1-785-758-4567,lperacco5t@hud.gov,lperacco5t.hud.gov,seize turn-key e-commerce,Florida,Tampa,0 Menomonie Lane,22,33605,near Plaza,418839,FKTW1763,418839@FKTW1763
211,CJKT7707,Mertz and Sons,+1-513-626-7228,+1-303-112-4230,fhaskins5u@usa.gov,fhaskins5u.usa.gov,productize B2B content,Ohio,Cincinnati,20769 Holy Cross Hill,59,45228,near Insurance Company,300810,PYL6321,300810@PYL6321
212,PEIH9960,Metz-Lueilwitz,+1-682-570-3471,+1-425-824-1783,dcristobal5v@usnews.com,dcristobal5v.usnews.com,synergize B2C web services,Texas,Arlington,10167 Corscot Center,27,76011,near Insurance Company,541591,TSLC1261,541591@TSLC1261
213,RTLW5461,Kemmer-Jast,+1-208-540-5986,+1-312-163-9222,wpritchitt5w@un.org,wpritchitt5w.un.org,brand clicks-and-mortar niches,Idaho,Boise,6350 Cody Point,97,83705,near Plaza,940837,BQRU9330,940837@BQRU9330
214,SQAS4248,"Blanda, Lesch and Halvorson",+1-415-539-4730,+1-559-181-2923,gburrow5x@hexun.com,gburrow5x.hexun.com,repurpose sexy action-items,California,San Francisco,526 Hauk Junction,57,94164,near Hospital,225731,JE9362,225731@JE9362
215,AXWI3149,Christiansen-Turcotte,+1-203-346-6428,+1-210-514-7653,ldeem5y@php.net,ldeem5y.php.net,syndicate B2B content,Connecticut,New Haven,941 Division Parkway,51,6538,near Plaza,138784,UQIB1433,138784@UQIB1433
216,CZXN5960,Hilll and Sons,+1-513-264-9364,+1-574-934-1030,ntrinbey5z@mac.com,ntrinbey5z.mac.com,target innovative synergies,Ohio,Cincinnati,2733 Russell Alley,6,45271,opposite Hospital,856231,RYR3630,856231@RYR3630
217,EGQR3701,Smitham LLC,+1-502-233-5027,+1-719-383-5308,ksimionato60@omniture.com,ksimionato60.omniture.com,exploit best-of-breed platforms,Kentucky,Louisville,861 Center Place,58,40250,opposite Hospital,183300,DYFZ0622,183300@DYFZ0622
218,ZCJV4854,Hettinger LLC,+1-786-349-7416,+1-425-985-9629,zkeam61@php.net,zkeam61.php.net,streamline turn-key partnerships,Florida,Hialeah,51186 Tomscot Lane,83,33018,near Hospital,171086,FGFD3986,171086@FGFD3986
219,XPAC0777,Gusikowski LLC,+1-206-847-3429,,jbootman62@arizona.edu,jbootman62.arizona.edu,exploit value-added deliverables,Washington,Seattle,61788 Mcguire Road,22,98115,near Insurance Company,918929,TXC6392,918929@TXC6392
220,IIOU8595,Schowalter LLC,+1-301-612-3890,+1-915-955-7640,mbriggdale63@histats.com,mbriggdale63.histats.com,expedite leading-edge networks,Maryland,Rockville,630 Summerview Circle,18,20851,opposite Hospital,814372,TTY4219,814372@TTY4219
221,QLHK4585,"Conroy, Gorczany and Stiedemann",+1-505-102-9469,+1-516-187-0962,bbeatson64@wunderground.com,bbeatson64.wunderground.com,redefine next-generation models,New Mexico,Albuquerque,283 Twin Pines Parkway,22,87115,opposite Hospital,502473,AG0901,502473@AG0901
222,HLQW0058,"Hansen, Schulist and Legros",+1-203-220-2564,+1-505-617-5466,vraffan65@umich.edu,vraffan65.umich.edu,matrix cross-media e-commerce,Connecticut,New Haven,79 Spohn Parkway,35,6520,near Hospital,867312,ALSW0923,867312@ALSW0923
223,MWUY3681,Wunsch-Gleichner,+1-703-540-0069,+1-814-721-1947,elebel66@nifty.com,elebel66.nifty.com,mesh web-enabled convergence,Virginia,Reston,48 Muir Junction,26,20195,near Plaza,931127,WRIZ2354,931127@WRIZ2354
224,SKGF9528,"Braun, Jakubowski and Frami",+1-202-419-8022,+1-507-816-7112,ckinnar67@bluehost.com,ckinnar67.bluehost.com,engage granular models,District of Columbia,Washington,52727 Independence Center,32,20551,near Lake,100806,KHL0609,100806@KHL0609
225,YPOB9998,"Stamm, Hermann and Schamberger",+1-323-386-6685,+1-937-775-4648,nmash68@dailymail.co.uk,nmash68.dailymail.co.uk,transition proactive paradigms,California,Burbank,4 Buhler Park,7,91505,near Hospital,154087,XN3509,154087@XN3509
226,UQNX1280,"Rogahn, Satterfield and Ortiz",+1-818-842-2829,,ddurram69@yelp.com,ddurram69.yelp.com,scale distributed architectures,California,Glendale,23251 Welch Alley,18,91205,near Insurance Company,499355,QT2840,499355@QT2840
227,UDIM6965,"Ritchie, Gaylord and Schuster",+1-616-965-6522,+1-714-519-6828,jspruce6a@upenn.edu,jspruce6a.upenn.edu,empower world-class action-items,Michigan,Grand Rapids,274 Dottie Road,55,49560,near Lake,439115,AXBQ8582,439115@AXBQ8582
228,YLVC2442,"O'Hara, Douglas and Kuhlman",+1-816-532-4147,+1-562-637-5592,hrieflin6b@51.la,hrieflin6b.51.la,exploit killer e-commerce,Missouri,Kansas City,840 Farwell Trail,14,64114,near Plaza,425034,ZUN0975,425034@ZUN0975
229,EHQT2763,"Conn, Morissette and Kirlin",+1-315-821-7728,+1-208-671-2766,mlinn6c@cargocollective.com,mlinn6c.cargocollective.com,scale leading-edge initiatives,New York,Syracuse,450 Morrow Court,50,13210,opposite Hospital,260472,HO3770,260472@HO3770
230,MCAM2786,Wiegand and Sons,+1-619-911-9164,+1-267-201-9313,tpratley6d@techcrunch.com,tpratley6d.techcrunch.com,deliver global e-commerce,California,San Diego,005 Village Green Hill,44,92170,near Lake,327927,GQZ4190,327927@GQZ4190
231,IMSU3174,"Koss, Senger and Ratke",+1-330-697-9613,+1-254-623-2134,mcarik6e@aboutads.info,mcarik6e.aboutads.info,utilize virtual architectures,Ohio,Canton,29632 Northwestern Park,91,44705,near Insurance Company,520868,OVYJ9706,520868@OVYJ9706
232,ELSM8548,"Hamill, Goldner and Kutch",+1-804-578-8079,+1-253-482-9397,kramelet6f@auda.org.au,kramelet6f.auda.org.au,incubate B2B convergence,Virginia,Richmond,15151 Mcguire Terrace,8,23293,near Hospital,363603,DJQW3352,363603@DJQW3352
233,MUOT8987,Funk-Stehr,+1-915-537-9789,+1-251-687-5167,henglishby6g@reuters.com,henglishby6g.reuters.com,engineer next-generation platforms,Texas,El Paso,9036 Forest Terrace,68,88579,near Lake,583633,SXAG1831,583633@SXAG1831
234,JJJQ2753,Altenwerth-Rolfson,+1-503-788-7157,+1-202-200-7500,pbestman6h@google.co.jp,pbestman6h.google.co.jp,morph bleeding-edge architectures,Oregon,Beaverton,29 Huxley Court,100,97075,opposite Hospital,979855,TU6995,979855@TU6995
235,EWPX0848,"Mosciski, Reynolds and Crist",+1-434-358-3457,+1-206-352-1666,pealden6i@themeforest.net,pealden6i.themeforest.net,empower collaborative convergence,Virginia,Lynchburg,56521 Fisk Center,66,24515,near Plaza,118036,CJV9522,118036@CJV9522
236,VFIH5397,"Stark, O'Conner and Lockman",+1-614-997-1515,+1-305-907-0539,smckendry6j@facebook.com,smckendry6j.facebook.com,utilize leading-edge applications,Ohio,Columbus,9 Daystar Trail,4,43220,near Lake,356786,NUMR3215,356786@NUMR3215
237,RTHF1351,Lemke-Gutmann,+1-916-945-5574,+1-513-563-3269,kpreedy6k@weebly.com,kpreedy6k.weebly.com,unleash integrated architectures,California,Sacramento,302 Hintze Terrace,5,94207,near Hospital,540018,TZ9415,540018@TZ9415
238,GREF7883,O'Reilly-Powlowski,+1-915-480-4595,+1-918-380-9263,rzorer6l@economist.com,rzorer6l.economist.com,seize 24/365 channels,Texas,El Paso,319 Algoma Circle,47,79911,near Plaza,565971,CJHJ6273,565971@CJHJ6273
239,SOKU9670,Langosh LLC,+1-806-439-9202,+1-217-396-1975,etabary6m@census.gov,etabary6m.census.gov,envisioneer real-time supply-chains,Texas,Amarillo,7221 Sheridan Center,81,79116,near Hospital,641353,QLCW2955,641353@QLCW2955
240,TEUG8736,"Willms, Kling and Huel",+1-409-240-8670,+1-208-827-2941,heastabrook6n@comcast.net,heastabrook6n.comcast.net,repurpose strategic initiatives,Texas,Beaumont,18 Forest Dale Drive,81,77713,near Insurance Company,292758,KX4448,292758@KX4448
241,ZBCA3488,"Lakin, Kautzer and O'Keefe",+1-813-621-1434,+1-503-528-8007,wormrod6o@state.tx.us,wormrod6o.state.tx.us,productize intuitive infrastructures,Florida,Tampa,75 Old Gate Place,9,33661,opposite Hospital,522822,NP0125,522822@NP0125
242,GNOB9626,"Gusikowski, Kerluke and Murphy",+1-251-992-9023,+1-504-684-9179,iguild6p@kickstarter.com,iguild6p.kickstarter.com,extend one-to-one ROI,Alabama,Mobile,8 Stoughton Park,6,36616,near Hospital,200443,HR1296,200443@HR1296
243,JDWF7942,Kertzmann-Haag,+1-617-456-1951,+1-205-575-9010,broistone6q@salon.com,broistone6q.salon.com,reintermediate efficient e-commerce,Massachusetts,Boston,5675 Fordem Court,12,2216,near Lake,425809,BI6695,425809@BI6695
244,EZDT0235,Farrell Group,+1-803-518-1051,+1-619-802-8932,flack6r@squarespace.com,flack6r.squarespace.com,maximize sticky experiences,South Carolina,Aiken,8259 David Street,57,29805,near Hospital,678452,JB5508,678452@JB5508
245,NORY3288,Rutherford-Legros,+1-612-823-1220,+1-309-343-0435,lcherrett6s@theguardian.com,lcherrett6s.theguardian.com,mesh integrated portals,Minnesota,Minneapolis,39809 Division Circle,10,55428,near Insurance Company,142209,HJU8396,142209@HJU8396
246,XEWU4920,Cremin-Johnson,+1-702-624-5469,+1-937-438-4553,fleyshon6t@independent.co.uk,fleyshon6t.independent.co.uk,empower turn-key platforms,Nevada,Las Vegas,4960 Jana Junction,65,89125,near Hospital,182797,JH5388,182797@JH5388
247,ZGVF7219,"Koepp, Mueller and Kuhn",+1-202-388-0218,+1-515-115-3963,amcgrotty6u@gnu.org,amcgrotty6u.gnu.org,embrace magnetic eyeballs,District of Columbia,Washington,410 Bunting Plaza,44,20530,opposite Hospital,813947,MQ3096,813947@MQ3096
248,VRUL8417,Corkery-Torphy,+1-319-607-8986,+1-617-755-1804,tpartkya6v@hp.com,tpartkya6v.hp.com,embrace front-end bandwidth,Iowa,Cedar Rapids,991 Tennessee Alley,26,52410,near Insurance Company,206959,YD4652,206959@YD4652
249,GSFX0920,Altenwerth-Satterfield,+1-512-221-7059,+1-202-111-9711,tstading6w@comsenz.com,tstading6w.comsenz.com,expedite clicks-and-mortar e-services,Texas,Austin,575 East Drive,73,78721,near Plaza,846551,ZDS4645,846551@ZDS4645
250,QUJT1374,McDermott and Sons,+1-253-224-6751,+1-919-484-5000,mveryan6x@deliciousdays.com,mveryan6x.deliciousdays.com,facilitate wireless e-markets,Washington,Tacoma,23526 Fisk Street,47,98405,near Insurance Company,644353,SF6240,644353@SF6240
251,PNUJ5697,Kerluke-Bednar,+1-909-874-2208,+1-205-972-9261,bshorbrook6y@histats.com,bshorbrook6y.histats.com,enhance synergistic synergies,California,Pomona,415 Northport Way,46,91797,near Hospital,539334,ATBI0136,539334@ATBI0136
252,RZOT8370,Goldner-Pouros,+1-617-828-7017,+1-208-141-4636,mtwitchett6z@opensource.org,mtwitchett6z.opensource.org,empower next-generation supply-chains,Massachusetts,Boston,270 Dovetail Hill,9,2119,near Plaza,796166,GF2066,796166@GF2066
253,EBFX4861,Langosh and Sons,+1-281-256-4137,+1-202-685-3972,lburmingham70@photobucket.com,lburmingham70.photobucket.com,integrate revolutionary e-markets,Texas,Houston,224 Maple Wood Road,19,77060,near Insurance Company,645389,LLF7628,645389@LLF7628
254,FCGQ6770,"Nienow, King and Wolf",+1-205-507-4276,+1-216-599-0695,vzecchinii71@yellowbook.com,vzecchinii71.yellowbook.com,deliver intuitive functionalities,Alabama,Birmingham,205 Graceland Parkway,85,35215,opposite Hospital,362954,TIHJ3482,362954@TIHJ3482
255,RQJR3468,Waters LLC,+1-617-264-8746,+1-704-532-3288,rginsie72@nifty.com,rginsie72.nifty.com,synthesize proactive solutions,Massachusetts,Boston,49 Hauk Trail,83,2124,near Plaza,315619,LLP8504,315619@LLP8504
256,AHJV1608,"Parker, Pfeffer and Cremin",+1-203-680-8959,+1-210-834-9684,nhendriks73@si.edu,nhendriks73.si.edu,strategize ubiquitous systems,Connecticut,Bridgeport,0164 Melvin Plaza,11,6606,near Plaza,121695,JV0117,121695@JV0117
257,YKBX4101,"Konopelski, Gerhold and Rath",+1-916-490-3405,+1-504-216-0141,mbaroc74@goo.ne.jp,mbaroc74.goo.ne.jp,whiteboard ubiquitous e-commerce,California,Sacramento,85 Texas Street,92,94263,near Lake,755630,FI9824,755630@FI9824
258,LCHW2153,"Towne, Roberts and Hirthe",+1-858-115-4569,+1-719-538-9195,sdelahunty75@typepad.com,sdelahunty75.typepad.com,embrace dot-com web services,California,San Diego,23276 Elka Place,30,92110,opposite Hospital,386191,DN1608,386191@DN1608
259,QNEG3698,Strosin-Schuster,+1-434-720-3846,+1-323-314-4417,aambridge76@livejournal.com,aambridge76.livejournal.com,generate 24/7 synergies,Virginia,Charlottesville,786 Farmco Lane,36,22908,near Insurance Company,140331,LJT2569,140331@LJT2569
260,SSCH6625,Adams-Quigley,+1-562-384-5879,+1-405-892-2289,scantwell77@ameblo.jp,scantwell77.ameblo.jp,repurpose holistic systems,California,Los Angeles,039 Debra Drive,92,90020,opposite Hospital,692527,SDQQ5660,692527@SDQQ5660
261,UNOH0414,Mueller-Reynolds,+1-319-718-7571,+1-702-292-9985,cpilpovic78@ask.com,cpilpovic78.ask.com,benchmark end-to-end partnerships,Iowa,Waterloo,5 Anthes Lane,68,50706,near Hospital,613579,ZMP5036,613579@ZMP5036
262,KTDF5485,"Johnson, Mayer and Hilll",+1-646-285-3095,,jsnasel79@buzzfeed.com,jsnasel79.buzzfeed.com,facilitate ubiquitous systems,New York,New York City,647 Lawn Trail,66,10014,near Insurance Company,619211,DKQE5313,619211@DKQE5313
263,GTLQ4366,"Ernser, Stoltenberg and Simonis",+1-718-896-5359,,eroan7a@thetimes.co.uk,eroan7a.thetimes.co.uk,empower visionary e-services,New York,Bronx,00419 Mendota Drive,80,10469,near Lake,345066,WWDC9791,345066@WWDC9791
264,SOSJ0712,"Reynolds, Lind and Stanton",+1-909-195-8536,+1-978-263-5061,sbridgen7b@devhub.com,sbridgen7b.devhub.com,deliver best-of-breed infomediaries,California,Pomona,4 Vahlen Place,18,91797,near Lake,491536,DWFK1580,491536@DWFK1580
265,MMRO4517,Heathcote-Koss,+1-313-386-0273,+1-334-174-8064,jbitcheno7c@ning.com,jbitcheno7c.ning.com,transform real-time infomediaries,Michigan,Detroit,2719 Surrey Terrace,43,48275,near Insurance Company,898170,RXLU7653,898170@RXLU7653
266,NKRQ1444,"Schmitt, Fisher and Feest",+1-240-769-5481,+1-337-967-9702,ekeeltagh7d@amazon.de,ekeeltagh7d.amazon.de,expedite cross-media architectures,Maryland,Gaithersburg,9162 Riverside Avenue,99,20883,near Insurance Company,741909,GA0460,741909@GA0460
267,BLMK0410,"Collins, Oberbrunner and Larkin",+1-954-729-5629,+1-706-783-6136,gmoncreiffe7e@imdb.com,gmoncreiffe7e.imdb.com,enable killer systems,Florida,Miami,17 Barby Place,67,33142,near Insurance Company,682764,HA3793,682764@HA3793
268,BXSR1758,Blanda LLC,+1-918-520-3252,+1-850-183-1392,lcaley7f@opensource.org,lcaley7f.opensource.org,matrix wireless experiences,Oklahoma,Tulsa,3008 Rieder Plaza,98,74126,near Lake,662456,KPPO0920,662456@KPPO0920
269,TKZZ6556,"Volkman, McKenzie and Schuppe",+1-916-482-5773,+1-303-692-4336,cwhear7g@chronoengine.com,cwhear7g.chronoengine.com,aggregate dynamic infrastructures,California,Sacramento,1 Summit Court,15,94297,near Hospital,283035,KKS7933,283035@KKS7933
270,ZSUK6918,Bernier Group,+1-650-983-1795,+1-413-413-2161,ldrohan7h@smh.com.au,ldrohan7h.smh.com.au,syndicate out-of-the-box eyeballs,California,Redwood City,812 Sunfield Plaza,74,94064,near Plaza,557194,NN5176,557194@NN5176
271,VVWV5321,Miller Inc,+1-859-930-6797,+1-719-233-2806,hfidock7i@symantec.com,hfidock7i.symantec.com,scale integrated technologies,Kentucky,Lexington,122 Clove Alley,82,40505,opposite Hospital,688592,QK8798,688592@QK8798
272,THQA3041,"Littel, Dickinson and Morissette",+1-612-274-7394,+1-702-339-8050,dtremeer7j@dell.com,dtremeer7j.dell.com,synthesize 24/365 convergence,Minnesota,Minneapolis,3 Utah Street,28,55407,near Lake,966413,NJDX1288,966413@NJDX1288
273,HXYP4041,Bashirian LLC,+1-916-893-9314,+1-510-420-8433,mtrevett7k@discovery.com,mtrevett7k.discovery.com,disintermediate granular portals,California,Sacramento,8856 Cottonwood Plaza,25,94286,opposite Hospital,126657,FAGS3012,126657@FAGS3012
274,AIUX8115,"Cartwright, Keeling and Schneider",+1-760-117-1009,+1-727-216-6808,churley7l@sun.com,churley7l.sun.com,productize vertical paradigms,California,Escondido,8783 Bluestem Trail,24,92030,near Plaza,847374,AFVL7193,847374@AFVL7193
275,ETKB0142,Skiles and Sons,+1-405-625-8652,+1-757-942-6466,nmilson7m@multiply.com,nmilson7m.multiply.com,enhance intuitive synergies,Oklahoma,Oklahoma City,190 Anthes Junction,77,73179,opposite Hospital,569448,KV1256,569448@KV1256
276,TFGJ2805,Sauer-Kohler,+1-323-310-4399,+1-704-283-9139,bdibbert7n@google.es,bdibbert7n.google.es,iterate scalable vortals,California,Los Angeles,090 Ridgeview Street,51,90094,near Hospital,580075,UI6116,580075@UI6116
277,SGDV4734,"McDermott, Vandervort and Goldner",+1-313-966-4416,+1-816-376-5090,nluxton7o@engadget.com,nluxton7o.engadget.com,productize web-enabled web-readiness,Michigan,Detroit,18 Main Crossing,66,48295,near Hospital,541036,XR1974,541036@XR1974
278,SYOQ4403,Lind and Sons,+1-863-122-1556,+1-417-304-3034,mhunnam7p@tripadvisor.com,mhunnam7p.tripadvisor.com,maximize robust content,Florida,Lakeland,00626 Havey Way,36,33805,near Insurance Company,900180,KGWI7109,900180@KGWI7109
279,OAKN0973,Champlin Group,+1-405-766-8384,+1-361-375-8673,begel7q@bravesites.com,begel7q.bravesites.com,engage cutting-edge functionalities,Oklahoma,Oklahoma City,9 Carpenter Circle,94,73119,opposite Hospital,799448,HY1577,799448@HY1577
280,KFCE7550,"Swift, Hilll and Auer",+1-218-641-0147,+1-213-545-1475,esimester7r@networkadvertising.org,esimester7r.networkadvertising.org,scale end-to-end interfaces,Minnesota,Duluth,28107 Lakewood Alley,20,55811,near Insurance Company,609953,PZV7456,609953@PZV7456
281,UBNJ0646,"Murray, Olson and Flatley",+1-571-476-9885,+1-785-507-1082,scompston7s@chicagotribune.com,scompston7s.chicagotribune.com,grow bleeding-edge convergence,Virginia,Alexandria,51625 Petterle Center,32,22333,opposite Hospital,640816,JI7702,640816@JI7702
282,ZZSE8937,Flatley and Sons,+1-702-433-6071,+1-217-270-2906,ktitcumb7t@theguardian.com,ktitcumb7t.theguardian.com,engage transparent eyeballs,Nevada,North Las Vegas,461 Shelley Pass,27,89087,near Plaza,288081,LIMM6900,288081@LIMM6900
283,IXPN0233,"Cartwright, Quigley and Barton",+1-267-522-4346,+1-260-351-6122,aadcocks7u@networksolutions.com,aadcocks7u.networksolutions.com,generate back-end mindshare,Pennsylvania,Philadelphia,44547 Doe Crossing Circle,29,19146,near Insurance Company,554963,CJEP8204,554963@CJEP8204
284,NLSQ5391,"Farrell, Cruickshank and Rolfson",+1-314-193-1113,+1-785-653-6576,iblackie7v@bloglovin.com,iblackie7v.bloglovin.com,target virtual architectures,Missouri,Saint Louis,4 Daystar Street,7,63143,near Insurance Company,885899,GU1392,885899@GU1392
285,HKFG8319,Bogisich LLC,+1-303-629-4162,+1-626-802-1144,jmarkwelley7w@csmonitor.com,jmarkwelley7w.csmonitor.com,evolve visionary architectures,Colorado,Denver,3 Melody Drive,8,80217,near Hospital,940793,AL5682,940793@AL5682
286,SRCD9891,"Kshlerin, Gutkowski and Collins",+1-716-186-2568,+1-352-940-5871,darminger7x@gizmodo.com,darminger7x.gizmodo.com,architect granular deliverables,New York,Buffalo,5 Mcguire Point,12,14215,near Lake,116633,UI7744,116633@UI7744
287,ZRFD4454,McClure Group,+1-719-543-8160,+1-586-954-1073,cgorcke7y@answers.com,cgorcke7y.answers.com,seize transparent platforms,Colorado,Pueblo,9994 Fisk Center,5,81005,near Insurance Company,249864,ZCC5158,249864@ZCC5158
288,QQVS9908,Frami-Pfannerstill,+1-504-348-5708,+1-812-688-5184,edomenge7z@soundcloud.com,edomenge7z.soundcloud.com,cultivate dot-com technologies,Louisiana,Metairie,8 Columbus Alley,54,70033,near Hospital,589578,DH9009,589578@DH9009
289,OZWH2281,"Bergstrom, Leuschke and Stanton",+1-408-375-0464,+1-361-296-8390,abasden80@nature.com,abasden80.nature.com,harness integrated metrics,California,San Jose,1 Maple Wood Court,33,95113,near Plaza,104857,HWJ7292,104857@HWJ7292
290,KAPM4520,White Inc,+1-520-768-0992,+1-424-430-5446,cparlour81@bloglines.com,cparlour81.bloglines.com,aggregate holistic platforms,Arizona,Tucson,0 Londonderry Road,41,85715,near Insurance Company,905966,IZ7044,905966@IZ7044
291,IHHT4156,Hodkiewicz LLC,+1-615-162-1388,+1-202-924-8656,sgoodfield82@microsoft.com,sgoodfield82.microsoft.com,repurpose magnetic experiences,Tennessee,Nashville,3 Amoth Crossing,9,37210,near Plaza,308937,EAY7674,308937@EAY7674
292,RKXD3312,Toy-O'Kon,+1-561-645-1784,+1-570-343-5497,cbennet83@godaddy.com,cbennet83.godaddy.com,exploit cross-media channels,Florida,Boynton Beach,55 Kensington Trail,47,33436,near Plaza,748750,LGJN0871,748750@LGJN0871
293,GEGE9261,"Kilback, Hane and Purdy",+1-254-491-2643,+1-704-178-7428,mdavion84@ucla.edu,mdavion84.ucla.edu,drive B2C e-commerce,Texas,Waco,64 Hansons Way,52,76711,near Plaza,910858,ZVH8177,910858@ZVH8177
294,KDXN6729,Hoppe and Sons,+1-803-144-7854,+1-240-982-1075,ccrippen85@usgs.gov,ccrippen85.usgs.gov,deploy sticky experiences,South Carolina,Columbia,4 Oakridge Trail,87,29225,opposite Hospital,321607,ZYS0810,321607@ZYS0810
295,QPWX4430,"Feeney, Homenick and Senger",+1-214-139-2267,+1-203-270-3644,gbisp86@latimes.com,gbisp86.latimes.com,strategize back-end bandwidth,Texas,Dallas,60 Mendota Road,35,75353,near Hospital,652376,SKD0180,652376@SKD0180
296,BPNC1355,Bednar-Abernathy,+1-202-287-6875,+1-225-235-4591,ahynard87@wix.com,ahynard87.wix.com,synthesize leading-edge action-items,District of Columbia,Washington,71 Alpine Plaza,38,20370,near Plaza,905364,GZP2307,905364@GZP2307
297,GFVV0524,"Lang, Roob and Brakus",+1-304-739-3005,+1-765-160-7425,lbirkett88@about.me,lbirkett88.about.me,transform e-business networks,West Virginia,Charleston,9 Hollow Ridge Junction,54,25356,near Hospital,967725,JI2978,967725@JI2978
298,HCPJ0156,O'Hara Group,+1-716-336-8905,+1-417-957-1951,sdumphrey89@aol.com,sdumphrey89.aol.com,generate web-enabled schemas,New York,Buffalo,1 Kingsford Parkway,35,14205,near Insurance Company,442914,XSX6243,442914@XSX6243
299,WJNN2359,Parisian Group,+1-504-270-2996,+1-215-574-5815,mforcade8a@china.com.cn,mforcade8a.china.com.cn,whiteboard bleeding-edge metrics,Louisiana,New Orleans,255 American Ash Avenue,52,70142,near Lake,911249,WPAF9241,911249@WPAF9241
300,RNFU7084,Dach-Kuhic,+1-480-851-0786,+1-912-928-4232,drillatt8b@zdnet.com,drillatt8b.zdnet.com,optimize cross-media paradigms,Arizona,Mesa,86784 Sunbrook Center,19,85210,near Hospital,701223,LT1054,701223@LT1054